{
    "links": {
        "self": "http://www.neowsapp.com/rest/v1/neo/3797694?api_key=iIulBulltgU6a56xZRHN4H3l9WmuAYTsLGpBGhQ2"
    },
    "id": "3797694",
    "neo_reference_id": "3797694",
    "name": "(2018 AN12)",
    "designation": "2018 AN12",
    "nasa_jpl_url": "http://ssd.jpl.nasa.gov/sbdb.cgi?sstr=3797694",
    "absolute_magnitude_h": 24.9,
    "estimated_diameter": {
        "kilometers": {
            "estimated_diameter_min": 0.0278326768,
            "estimated_diameter_max": 0.0622357573
        },
        "meters": {
            "estimated_diameter_min": 27.8326768072,
            "estimated_diameter_max": 62.2357573367
        },
        "miles": {
            "estimated_diameter_min": 0.0172944182,
            "estimated_diameter_max": 0.0386714948
        },
        "feet": {
            "estimated_diameter_min": 91.3145593761,
            "estimated_diameter_max": 204.1855621004
        }
    },
    "is_potentially_hazardous_asteroid": false,
    "close_approach_data": [
        {
            "close_approach_date": "1944-01-25",
            "close_approach_date_full": "1944-Jan-25 15:03",
            "epoch_date_close_approach": -818413020000,
            "relative_velocity": {
                "kilometers_per_second": "12.0012832076",
                "kilometers_per_hour": "43204.6195473942",
                "miles_per_hour": "26845.6704071017"
            },
            "miss_distance": {
                "astronomical": "0.2588506418",
                "lunar": "100.6928996602",
                "kilometers": "38723504.661412966",
                "miles": "24061670.0421362908"
            },
            "orbiting_body": "Earth"
        },
        {
            "close_approach_date": "2009-12-21",
            "close_approach_date_full": "2009-Dec-21 10:01",
            "epoch_date_close_approach": 1261389660000,
            "relative_velocity": {
                "kilometers_per_second": "8.9431009175",
                "kilometers_per_hour": "32195.1633031435",
                "miles_per_hour": "20004.8224424449"
            },
            "miss_distance": {
                "astronomical": "0.25991191",
                "lunar": "101.10573299",
                "kilometers": "38882268.1236317",
                "miles": "24160321.08304946"
            },
            "orbiting_body": "Earth"
        },
        {
            "close_approach_date": "2018-01-11",
            "close_approach_date_full": "2018-Jan-11 18:18",
            "epoch_date_close_approach": 1515694680000,
            "relative_velocity": {
                "kilometers_per_second": "7.009285092",
                "kilometers_per_hour": "25233.4263313667",
                "miles_per_hour": "15679.0698223984"
            },
            "miss_distance": {
                "astronomical": "0.0548071603",
                "lunar": "21.3199853567",
                "kilometers": "8199034.441628561",
                "miles": "5094643.7602577018"
            },
            "orbiting_body": "Earth"
        },
        {
            "close_approach_date": "2026-01-25",
            "close_approach_date_full": "2026-Jan-25 05:35",
            "epoch_date_close_approach": 1769319300000,
            "relative_velocity": {
                "kilometers_per_second": "11.7775839648",
                "kilometers_per_hour": "42399.302273366",
                "miles_per_hour": "26345.2775709146"
            },
            "miss_distance": {
                "astronomical": "0.2505625004",
                "lunar": "97.4688126556",
                "kilometers": "37483616.361714148",
                "miles": "23291239.1780573224"
            },
            "orbiting_body": "Earth"
        },
        {
            "close_approach_date": "2091-12-22",
            "close_approach_date_full": "2091-Dec-22 09:41",
            "epoch_date_close_approach": 3849154860000,
            "relative_velocity": {
                "kilometers_per_second": "8.9086648736",
                "kilometers_per_hour": "32071.1935450612",
                "miles_per_hour": "19927.7924558187"
            },
            "miss_distance": {
                "astronomical": "0.2546763204",
                "lunar": "99.0690886356",
                "kilometers": "38099035.071277548",
                "miles": "23673642.6318962424"
            },
            "orbiting_body": "Earth"
        }
    ],
    "orbital_data": {
        "orbit_id": "8",
        "orbit_determination_date": "2018-02-10 07:09:36",
        "first_observation_date": "2018-01-15",
        "last_observation_date": "2018-01-28",
        "data_arc_in_days": 13,
        "observations_used": 64,
        "orbit_uncertainty": "7",
        "minimum_orbit_intersection": ".05474",
        "jupiter_tisserand_invariant": "4.764",
        "epoch_osculation": "2459000.5",
        "eccentricity": ".2556137199512725",
        "semi_major_axis": "1.372461930272608",
        "inclination": "11.50733233989457",
        "ascending_node_longitude": "116.7220668989271",
        "orbital_period": "587.2849707612709",
        "perihelion_distance": "1.021641830784123",
        "perihelion_argument": "334.2938056276543",
        "aphelion_distance": "1.723282029761093",
        "perihelion_time": "2459285.476281575986",
        "mean_anomaly": "185.3122990115511",
        "mean_motion": ".6129903163252217",
        "equinox": "J2000",
        "orbit_class": {
            "orbit_class_type": "AMO",
            "orbit_class_description": "Near-Earth asteroid orbits similar to that of 1221 Amor",
            "orbit_class_range": "1.017 AU < q (perihelion) < 1.3 AU"
        }
    },
    "is_sentry_object": false
}